GOSAT-GW (IBUKI GW)     
1 64694U 25141A   26170.84922681  .00000025  00000+0  12909-4 0  9999
2 64694  98.0572 108.1229 0001441  82.9399 277.1969 14.67554638 52237
IONOSFERA-M 3           
1 64876U 25155A   26170.85020368  .00000035  00000+0  35760-4 0  9999
2 64876  98.6032 132.6881 0001164 152.1850 207.9390 14.21486814 46788
IONOSFERA-M 4           
1 64877U 25155B   26170.88504104  .00000037  00000+0  36652-4 0  9991
2 64877  98.6031 132.6395 0001143 120.0401 240.0890 14.21489060 46780
MICROCARB               
1 64899U 25156A   26170.73225537  .00000372  00000+0  66639-4 0  9990
2 64899  97.9831 247.8241 0014990 263.3237  96.6264 14.72327730 48340
CO3D 3                  
1 64900U 25156B   26170.82054171  .00003491  00000+0  16427-3 0  9991
2 64900  97.4327 249.4760 0001610 129.1370 231.0008 15.20212301 49932
CO3D 4                  
1 64901U 25156C   26170.82069267  .00000216  00000+0  13113-4 0  9996
2 64901  97.4333 249.4761 0000135 299.7743  60.3479 15.20192722 49939
CO3D 2                  
1 64902U 25156D   26170.78734787  .00003292  00000+0  15508-3 0  9994
2 64902  97.4328 249.3421 0001525 107.0982 253.0421 15.20213645 49921
CO3D 1                  
1 64903U 25156E   26170.78750135  .00004140  00000+0  19419-3 0  9998
2 64903  97.4325 249.3425 0001329 113.2440 246.8935 15.20213537 49923
PRSC-S1                 
1 65055U 25164A   26170.78322279  .00003494  00000+0  24427-3 0  9996
2 65055  41.1303 273.1917 0006201   1.2153 358.8675 15.06476945 48827
SENTINEL-6B             
1 66514U 25264A   26170.58426147 -.00000052  00000+0  41222-4 0  9996
2 66514  66.0398 130.1996 0008002 269.1481  90.8617 12.80929984 27479
CAS500-3                
1 66655U 25274F   26170.70279306  .00000929  00000+0  10618-3 0  9996
2 66655  97.7445  98.6966 0006836 103.7774 256.4204 14.88325944 30523
CSG-3                   
1 67304U 26001A   26170.49439741  .00000236  00000+0  36262-4 0  9999
2 67304  97.8888 354.0628 0001377  94.9001 265.2370 14.82155084 24806
PRSC-E03                
1 68835U 26092A   26170.83925403  .00002187  00000+0  15179-3 0  9992
2 68835  38.0013  74.0412 0003241  26.7560 333.3369 15.06679969  8355
CAS500-2                
1 69013U 26100AK  26170.78440174  .00005321  00000+0  24544-3 0  9991
2 69013  97.4070  68.5943 0010442  26.6140 333.5629 15.20615764  7200
