OBJECT_NAME,OBJECT_ID,EPOCH,MEAN_MOTION,ECCENTRICITY,INCLINATION,RA_OF_ASC_NODE,ARG_OF_PERICENTER,MEAN_ANOMALY,EPHEMERIS_TYPE,CLASSIFICATION_TYPE,NORAD_CAT_ID,ELEMENT_SET_NO,REV_AT_EPOCH,BSTAR,MEAN_MOTION_DOT,MEAN_MOTION_DDOT
GOSAT-GW (IBUKI GW),2025-141A,2026-06-19T20:22:53.196384,14.67554638,.0001441,98.0572,108.1229,82.9399,277.1969,0,U,64694,999,5223,.12909E-4,.25E-6,0
IONOSFERA-M 3,2025-155A,2026-06-19T20:24:17.597952,14.21486814,.0001164,98.6032,132.6881,152.1850,207.9390,0,U,64876,999,4678,.3576E-4,.35E-6,0
IONOSFERA-M 4,2025-155B,2026-06-19T21:14:27.545856,14.21489060,.0001143,98.6031,132.6395,120.0401,240.0890,0,U,64877,999,4678,.36652E-4,.37E-6,0
MICROCARB,2025-156A,2026-06-19T17:34:26.863968,14.72327730,.001499,97.9831,247.8241,263.3237,96.6264,0,U,64899,999,4834,.66639E-4,.372E-5,0
CO3D 3,2025-156B,2026-06-19T19:41:34.803744,15.20212301,.000161,97.4327,249.4760,129.1370,231.0008,0,U,64900,999,4993,.16427E-3,.3491E-4,0
CO3D 4,2025-156C,2026-06-19T19:41:47.846688,15.20192722,.0000135,97.4333,249.4761,299.7743,60.3479,0,U,64901,999,4993,.13113E-4,.216E-5,0
CO3D 2,2025-156D,2026-06-19T18:53:46.855968,15.20213645,.0001525,97.4328,249.3421,107.0982,253.0421,0,U,64902,999,4992,.15508E-3,.3292E-4,0
CO3D 1,2025-156E,2026-06-19T18:54:00.116640,15.20213537,.0001329,97.4325,249.3425,113.2440,246.8935,0,U,64903,999,4992,.19419E-3,.414E-4,0
PRSC-S1,2025-164A,2026-06-19T18:47:50.449056,15.06476945,.0006201,41.1303,273.1917,1.2153,358.8675,0,U,65055,999,4882,.24427E-3,.3494E-4,0
SENTINEL-6B,2025-264A,2026-06-19T14:01:20.191008,12.80929984,.00080027,66.0398,130.1996,269.1481,90.8617,0,U,66514,999,2747,.41221649E-4,-.52E-6,0
CAS500-3,2025-274F,2026-06-19T16:52:01.320384,14.88325944,.0006836,97.7445,98.6966,103.7774,256.4204,0,U,66655,999,3052,.10618E-3,.929E-5,0
CSG-3,2026-001A,2026-06-19T11:51:55.936224,14.82155084,.00013771,97.8888,354.0628,94.9001,265.2370,0,U,67304,999,2480,.36262382E-4,.236E-5,0
PRSC-E03,2026-092A,2026-06-19T20:08:31.548192,15.06679969,.0003241,38.0013,74.0412,26.7560,333.3369,0,U,68835,999,835,.15179E-3,.2187E-4,0
CAS500-2,2026-100AK,2026-06-19T18:49:32.310336,15.20615764,.0010442,97.4070,68.5943,26.6140,333.5629,0,U,69013,999,720,.24544E-3,.5321E-4,0
